start=new Date('2022-03-02T00:00:00.000Z').valueOf();
sats=[{"DECAY_DATE":null,"RCS_SIZE":"LARGE","APOAPSIS":"548.401","MEAN_ELEMENT_THEORY":"SGP4","FILE":"3338635","BSTAR":"0.00021882000000","OBJECT_TYPE":"PAYLOAD","MEAN_ANOMALY":"300.1619","SITE":"AFETR","GP_ID":"197542473","RA_OF_ASC_NODE":"76.8559","LAUNCH_DATE":"2020-10-24","ARG_OF_PERICENTER":"59.9542","OBJECT_NAME":"STARLINK-1922","CENTER_NAME":"EARTH","MEAN_MOTION":"15.06403836","NORAD_CAT_ID":"46753","REF_FRAME":"TEME","PERIOD":"95.592","ECCENTRICITY":"0.00017320","ELEMENT_SET_NO":"999","TLE_LINE2":"2 46753  53.0535  76.8559 0001732  59.9542 300.1619 15.06403836 75249","EPOCH":"2022-03-01T13:05:13.202880","MEAN_MOTION_DOT":"0.00002980","EPHEMERIS_TYPE":"0","TLE_LINE1":"1 46753U 20074Q   22060.54529170  .00002980  00000-0  21882-3 0  9994","COUNTRY_CODE":"US","PERIAPSIS":"546.002","MEAN_MOTION_DDOT":"0.0000000000000","INCLINATION":"53.0535","REV_AT_EPOCH":"7524","SEMIMAJOR_AXIS":"6925.337","TIME_SYSTEM":"UTC","OBJECT_ID":"2020-074Q","CLASSIFICATION_TYPE":"U"},{"REV_AT_EPOCH":"7524","INCLINATION":"53.0542","TIME_SYSTEM":"UTC","SEMIMAJOR_AXIS":"6925.349","OBJECT_ID":"2020-074R","CLASSIFICATION_TYPE":"U","PERIAPSIS":"546.070","COUNTRY_CODE":"US","TLE_LINE1":"1 46754U 20074R   22060.55266481  .00001159  00000-0  96724-4 0  9994","EPHEMERIS_TYPE":"0","MEAN_MOTION_DDOT":"0.0000000000000","ELEMENT_SET_NO":"999","TLE_LINE2":"2 46754  53.0542  76.8227 0001653  67.1034 293.0129 15.06399748 75241","MEAN_MOTION_DOT":"0.00001159","EPOCH":"2022-03-01T13:15:50.239584","NORAD_CAT_ID":"46754","REF_FRAME":"TEME","PERIOD":"95.592","ECCENTRICITY":"0.00016530","OBJECT_NAME":"STARLINK-1923","CENTER_NAME":"EARTH","ARG_OF_PERICENTER":"67.1034","MEAN_MOTION":"15.06399748","RA_OF_ASC_NODE":"76.8227","LAUNCH_DATE":"2020-10-24","BSTAR":"0.00009672400000","FILE":"3338635","OBJECT_TYPE":"PAYLOAD","GP_ID":"197541221","SITE":"AFETR","MEAN_ANOMALY":"293.0129","RCS_SIZE":"LARGE","DECAY_DATE":null,"APOAPSIS":"548.359","MEAN_ELEMENT_THEORY":"SGP4"},{"MEAN_MOTION_DDOT":"0.0000000000000","TLE_LINE1":"1 46755U 20074S   22060.42503639  .00000681  00000-0  64629-4 0  9998","EPHEMERIS_TYPE":"0","COUNTRY_CODE":"US","PERIAPSIS":"546.054","CLASSIFICATION_TYPE":"U","OBJECT_ID":"2020-074S","SEMIMAJOR_AXIS":"6925.344","TIME_SYSTEM":"UTC","REV_AT_EPOCH":"7515","INCLINATION":"53.0540","PERIOD":"95.592","ECCENTRICITY":"0.00016680","REF_FRAME":"TEME","NORAD_CAT_ID":"46755","EPOCH":"2022-03-01T10:12:03.144096","MEAN_MOTION_DOT":"0.00000681","TLE_LINE2":"2 46755  53.0540  82.3997 0001668  53.7970 306.3173 15.06401384 75159","ELEMENT_SET_NO":"999","LAUNCH_DATE":"2020-10-24","RA_OF_ASC_NODE":"82.3997","MEAN_MOTION":"15.06401384","ARG_OF_PERICENTER":"53.7970","OBJECT_NAME":"STARLINK-1924","CENTER_NAME":"EARTH","MEAN_ELEMENT_THEORY":"SGP4","APOAPSIS":"548.364","RCS_SIZE":"LARGE","DECAY_DATE":null,"SITE":"AFETR","MEAN_ANOMALY":"306.3173","GP_ID":"197490505","OBJECT_TYPE":"PAYLOAD","FILE":"3337314","BSTAR":"0.00006462900000"},{"MEAN_MOTION":"15.06398968","OBJECT_NAME":"STARLINK-1925","CENTER_NAME":"EARTH","ARG_OF_PERICENTER":"55.0001","LAUNCH_DATE":"2020-10-24","RA_OF_ASC_NODE":"80.3596","GP_ID":"197504181","MEAN_ANOMALY":"305.1157","SITE":"AFETR","OBJECT_TYPE":"PAYLOAD","BSTAR":"-0.00003051900000","FILE":"3337853","MEAN_ELEMENT_THEORY":"SGP4","APOAPSIS":"548.461","RCS_SIZE":"LARGE","DECAY_DATE":null,"CLASSIFICATION_TYPE":"U","OBJECT_ID":"2020-074T","TIME_SYSTEM":"UTC","SEMIMAJOR_AXIS":"6925.352","INCLINATION":"53.0563","REV_AT_EPOCH":"7524","MEAN_MOTION_DDOT":"0.0000000000000","PERIAPSIS":"545.972","TLE_LINE1":"1 46756U 20074T   22060.88114736 -.00000736  00000-0 -30519-4 0  9999","EPHEMERIS_TYPE":"0","COUNTRY_CODE":"US","MEAN_MOTION_DOT":"-0.00000736","EPOCH":"2022-03-01T21:08:51.131904","TLE_LINE2":"2 46756  53.0563  80.3596 0001797  55.0001 305.1157 15.06398968 75243","ELEMENT_SET_NO":"999","ECCENTRICITY":"0.00017970","PERIOD":"95.592","REF_FRAME":"TEME","NORAD_CAT_ID":"46756"},{"BSTAR":"0.00011099000000","FILE":"3337314","OBJECT_TYPE":"PAYLOAD","GP_ID":"197489507","MEAN_ANOMALY":"305.9897","SITE":"AFETR","RCS_SIZE":"LARGE","DECAY_DATE":null,"APOAPSIS":"548.502","MEAN_ELEMENT_THEORY":"SGP4","OBJECT_NAME":"STARLINK-1926","CENTER_NAME":"EARTH","ARG_OF_PERICENTER":"54.1262","MEAN_MOTION":"15.06393679","RA_OF_ASC_NODE":"82.3234","LAUNCH_DATE":"2020-10-24","ELEMENT_SET_NO":"999","TLE_LINE2":"2 46757  53.0551  82.3234 0001832  54.1262 305.9897 15.06393679 75154","MEAN_MOTION_DOT":"0.00001372","EPOCH":"2022-03-01T10:42:32.848128","NORAD_CAT_ID":"46757","REF_FRAME":"TEME","PERIOD":"95.593","ECCENTRICITY":"0.00018320","INCLINATION":"53.0551","REV_AT_EPOCH":"7515","TIME_SYSTEM":"UTC","SEMIMAJOR_AXIS":"6925.368","OBJECT_ID":"2020-074U","CLASSIFICATION_TYPE":"U","PERIAPSIS":"545.964","TLE_LINE1":"1 46757U 20074U   22060.44621352  .00001372  00000-0  11099-3 0  9995","EPHEMERIS_TYPE":"0","COUNTRY_CODE":"US","MEAN_MOTION_DDOT":"0.0000000000000"},{"RA_OF_ASC_NODE":"81.8947","LAUNCH_DATE":"2020-10-24","OBJECT_NAME":"STARLINK-1928","CENTER_NAME":"EARTH","ARG_OF_PERICENTER":"42.1621","MEAN_MOTION":"15.06396973","RCS_SIZE":"LARGE","DECAY_DATE":null,"APOAPSIS":"548.938","MEAN_ELEMENT_THEORY":"SGP4","BSTAR":"-0.00005037700000","FILE":"3338635","OBJECT_TYPE":"PAYLOAD","GP_ID":"197541721","MEAN_ANOMALY":"317.9558","SITE":"AFETR","PERIAPSIS":"545.508","COUNTRY_CODE":"US","TLE_LINE1":"1 46758U 20074V   22060.53930266 -.00001032  00000-0 -50377-4 0  9991","EPHEMERIS_TYPE":"0","MEAN_MOTION_DDOT":"0.0000000000000","REV_AT_EPOCH":"7517","INCLINATION":"53.0517","TIME_SYSTEM":"UTC","SEMIMAJOR_AXIS":"6925.358","OBJECT_ID":"2020-074V","CLASSIFICATION_TYPE":"U","NORAD_CAT_ID":"46758","REF_FRAME":"TEME","ECCENTRICITY":"0.00024760","PERIOD":"95.592","ELEMENT_SET_NO":"999","TLE_LINE2":"2 46758  53.0517  81.8947 0002476  42.1621 317.9558 15.06396973 75172","MEAN_MOTION_DOT":"-0.00001032","EPOCH":"2022-03-01T12:56:35.749824"},{"COUNTRY_CODE":"US","TLE_LINE1":"1 46759U 20074W   22060.46834741  .00001498  00000-0  11946-3 0  9997","EPHEMERIS_TYPE":"0","PERIAPSIS":"546.049","MEAN_MOTION_DDOT":"0.0000000000000","SEMIMAJOR_AXIS":"6925.334","TIME_SYSTEM":"UTC","INCLINATION":"53.0551","REV_AT_EPOCH":"7501","CLASSIFICATION_TYPE":"U","OBJECT_ID":"2020-074W","NORAD_CAT_ID":"46759","PERIOD":"95.592","ECCENTRICITY":"0.00016600","REF_FRAME":"TEME","TLE_LINE2":"2 46759  53.0551  92.2035 0001660  59.4392 300.6761 15.06404777 75015","ELEMENT_SET_NO":"999","EPOCH":"2022-03-01T11:14:25.216224","MEAN_MOTION_DOT":"0.00001498","RA_OF_ASC_NODE":"92.2035","LAUNCH_DATE":"2020-10-24","ARG_OF_PERICENTER":"59.4392","OBJECT_NAME":"STARLINK-1833","CENTER_NAME":"EARTH","MEAN_MOTION":"15.06404777","APOAPSIS":"548.349","DECAY_DATE":null,"RCS_SIZE":"LARGE","MEAN_ELEMENT_THEORY":"SGP4","FILE":"3337314","BSTAR":"0.00011946000000","SITE":"AFETR","MEAN_ANOMALY":"300.6761","GP_ID":"197491006","OBJECT_TYPE":"PAYLOAD"},{"RA_OF_ASC_NODE":"92.1529","LAUNCH_DATE":"2020-10-24","ARG_OF_PERICENTER":"55.6048","CENTER_NAME":"EARTH","OBJECT_NAME":"STARLINK-1896","MEAN_MOTION":"15.06408693","RCS_SIZE":"LARGE","DECAY_DATE":null,"APOAPSIS":"548.395","MEAN_ELEMENT_THEORY":"SGP4","FILE":"3337314","BSTAR":"0.00022574000000","OBJECT_TYPE":"PAYLOAD","SITE":"AFETR","MEAN_ANOMALY":"304.5106","GP_ID":"197491257","EPHEMERIS_TYPE":"0","TLE_LINE1":"1 46760U 20074X   22060.47940474  .00003083  00000-0  22574-3 0  9992","COUNTRY_CODE":"US","PERIAPSIS":"545.979","MEAN_MOTION_DDOT":"0.0000000000000","REV_AT_EPOCH":"7502","INCLINATION":"53.0541","SEMIMAJOR_AXIS":"6925.322","TIME_SYSTEM":"UTC","OBJECT_ID":"2020-074X","CLASSIFICATION_TYPE":"U","NORAD_CAT_ID":"46760","REF_FRAME":"TEME","PERIOD":"95.592","ECCENTRICITY":"0.00017440","ELEMENT_SET_NO":"999","TLE_LINE2":"2 46760  53.0541  92.1529 0001744  55.6048 304.5106 15.06408693 75020","EPOCH":"2022-03-01T11:30:20.569536","MEAN_MOTION_DOT":"0.00003083"},{"OBJECT_TYPE":"PAYLOAD","SITE":"AFETR","MEAN_ANOMALY":"342.8112","GP_ID":"197490008","FILE":"3337314","BSTAR":"0.00020332000000","MEAN_ELEMENT_THEORY":"SGP4","DECAY_DATE":null,"RCS_SIZE":"LARGE","APOAPSIS":"441.749","MEAN_MOTION":"15.42168132","ARG_OF_PERICENTER":"17.2994","CENTER_NAME":"EARTH","OBJECT_NAME":"STARLINK-1902","LAUNCH_DATE":"2020-10-24","RA_OF_ASC_NODE":"81.0125","EPOCH":"2022-03-01T12:32:26.375136","MEAN_MOTION_DOT":"0.00008448","ELEMENT_SET_NO":"999","TLE_LINE2":"2 46763  53.0537  81.0125 0002985  17.2994 342.8112 15.42168132 75189","REF_FRAME":"TEME","ECCENTRICITY":"0.00029850","PERIOD":"93.375","NORAD_CAT_ID":"46763","OBJECT_ID":"2020-074AA","CLASSIFICATION_TYPE":"U","INCLINATION":"53.0537","REV_AT_EPOCH":"7518","SEMIMAJOR_AXIS":"6817.849","TIME_SYSTEM":"UTC","MEAN_MOTION_DDOT":"0.0000000000000","COUNTRY_CODE":"US","TLE_LINE1":"1 46763U 20074AA  22060.52252749  .00008448  00000-0  20332-3 0  9992","EPHEMERIS_TYPE":"0","PERIAPSIS":"437.679"},{"NORAD_CAT_ID":"46764","REF_FRAME":"TEME","PERIOD":"95.593","ECCENTRICITY":"0.00017440","ELEMENT_SET_NO":"999","TLE_LINE2":"2 46764  53.0555  91.5873 0001744  50.7545 309.3598 15.06393360 75046","MEAN_MOTION_DOT":"-0.00001126","EPOCH":"2022-03-01T14:30:48.444768","PERIAPSIS":"546.026","TLE_LINE1":"1 46764U 20074AB  22060.60472737 -.00001126  00000-0 -56712-4 0  9993","EPHEMERIS_TYPE":"0","COUNTRY_CODE":"US","MEAN_MOTION_DDOT":"0.0000000000000","REV_AT_EPOCH":"7504","INCLINATION":"53.0555","TIME_SYSTEM":"UTC","SEMIMAJOR_AXIS":"6925.369","OBJECT_ID":"2020-074AB","CLASSIFICATION_TYPE":"U","RCS_SIZE":"LARGE","DECAY_DATE":null,"APOAPSIS":"548.442","MEAN_ELEMENT_THEORY":"SGP4","BSTAR":"-0.00005671200000","FILE":"3338635","OBJECT_TYPE":"PAYLOAD","GP_ID":"197541222","SITE":"AFETR","MEAN_ANOMALY":"309.3598","RA_OF_ASC_NODE":"91.5873","LAUNCH_DATE":"2020-10-24","CENTER_NAME":"EARTH","OBJECT_NAME":"STARLINK-1903","ARG_OF_PERICENTER":"50.7545","MEAN_MOTION":"15.06393360"}];
